{
  "type": "FeatureCollection",
  "features": [
    {
      "type": "Feature",
      "properties": {
        "norad_id": 34635,
        "name": "COSMOS 2251 DEB",
        "group": "cosmos-2251-debris",
        "lat": 38.22650721523417,
        "lon": 81.4101085921866,
        "alt_km": 665.564393577617,
        "timestamp": "2025-12-13T22:39:30.106145+00:00",
        "meta_object_name": "COSMOS 2251 DEB",
        "meta_object_id": "1993-036XG",
        "meta_epoch": "2025-12-13T08:02:58.253280",
        "meta_mean_motion": 14.68286135,
        "meta_eccentricity": 0.00284977,
        "meta_inclination": 74.0452,
        "meta_ra_of_asc_node": 69.5631,
        "meta_arg_of_pericenter": 138.0427,
        "meta_mean_anomaly": 286.2483,
        "meta_ephemeris_type": 0,
        "meta_classification_type": "U",
        "meta_norad_cat_id": 34635,
        "meta_element_set_no": 999,
        "meta_rev_at_epoch": 73228,
        "meta_bstar": 0.0020757851,
        "meta_mean_motion_dot": 0.00012039,
        "meta_mean_motion_ddot": 0,
        "tle_line1": "1 34635U 93036XG  25347.33539645  .00012039  00000+0  20758-2 0  9999",
        "tle_line2": "2 34635  74.0452  69.5631 0028497 138.0427 286.2483 14.68286135732289"
      },
      "geometry": {
        "type": "Point",
        "coordinates": [
          81.4101085921866,
          38.22650721523417
        ]
      }
    },
    {
      "type": "Feature",
      "properties": {
        "norad_id": 34637,
        "name": "COSMOS 2251 DEB",
        "group": "cosmos-2251-debris",
        "lat": -14.851228933760325,
        "lon": -76.78986146180847,
        "alt_km": 665.5657234591872,
        "timestamp": "2025-12-13T22:39:30.106155+00:00",
        "meta_object_name": "COSMOS 2251 DEB",
        "meta_object_id": "1993-036XJ",
        "meta_epoch": "2025-12-12T18:30:08.235360",
        "meta_mean_motion": 14.60099442,
        "meta_eccentricity": 0.00497956,
        "meta_inclination": 74.0491,
        "meta_ra_of_asc_node": 101.097,
        "meta_arg_of_pericenter": 171.5249,
        "meta_mean_anomaly": 339.4686,
        "meta_ephemeris_type": 0,
        "meta_classification_type": "U",
        "meta_norad_cat_id": 34637,
        "meta_element_set_no": 999,
        "meta_rev_at_epoch": 88527,
        "meta_bstar": 0.001546283,
        "meta_mean_motion_dot": 7.545e-05,
        "meta_mean_motion_ddot": 0,
        "tle_line1": "1 34637U 93036XJ  25346.77092865  .00007545  00000+0  15463-2 0  9999",
        "tle_line2": "2 34637  74.0491 101.0970 0049795 171.5249 339.4686 14.60099442885279"
      },
      "geometry": {
        "type": "Point",
        "coordinates": [
          -76.78986146180847,
          -14.851228933760325
        ]
      }
    },
    {
      "type": "Feature",
      "properties": {
        "norad_id": 34641,
        "name": "COSMOS 2251 DEB",
        "group": "cosmos-2251-debris",
        "lat": 27.67602900098834,
        "lon": -109.39676432876576,
        "alt_km": 729.4857277257033,
        "timestamp": "2025-12-13T22:39:30.106167+00:00",
        "meta_object_name": "COSMOS 2251 DEB",
        "meta_object_id": "1993-036XN",
        "meta_epoch": "2025-12-12T23:21:11.155392",
        "meta_mean_motion": 14.5200903,
        "meta_eccentricity": 0.00183078,
        "meta_inclination": 73.8388,
        "meta_ra_of_asc_node": 81.2019,
        "meta_arg_of_pericenter": 356.0596,
        "meta_mean_anomaly": 120.9423,
        "meta_ephemeris_type": 0,
        "meta_classification_type": "U",
        "meta_norad_cat_id": 34641,
        "meta_element_set_no": 999,
        "meta_rev_at_epoch": 88259,
        "meta_bstar": 0.0015585494,
        "meta_mean_motion_dot": 6.288e-05,
        "meta_mean_motion_ddot": 0,
        "tle_line1": "1 34641U 93036XN  25346.97304578  .00006288  00000+0  15585-2 0  9991",
        "tle_line2": "2 34641  73.8388  81.2019 0018307 356.0596 120.9423 14.52009030882598"
      },
      "geometry": {
        "type": "Point",
        "coordinates": [
          -109.39676432876576,
          27.67602900098834
        ]
      }
    },
    {
      "type": "Feature",
      "properties": {
        "norad_id": 34642,
        "name": "COSMOS 2251 DEB",
        "group": "cosmos-2251-debris",
        "lat": 3.9653922147703367,
        "lon": -21.145100399895465,
        "alt_km": 1033.104906411968,
        "timestamp": "2025-12-13T22:39:30.106177+00:00",
        "meta_object_name": "COSMOS 2251 DEB",
        "meta_object_id": "1993-036XP",
        "meta_epoch": "2025-12-13T05:33:40.683168",
        "meta_mean_motion": 13.98976497,
        "meta_eccentricity": 0.02071361,
        "meta_inclination": 74.0051,
        "meta_ra_of_asc_node": 338.949,
        "meta_arg_of_pericenter": 158.7098,
        "meta_mean_anomaly": 220.2456,
        "meta_ephemeris_type": 0,
        "meta_classification_type": "U",
        "meta_norad_cat_id": 34642,
        "meta_element_set_no": 999,
        "meta_rev_at_epoch": 85300,
        "meta_bstar": 0.0013816671,
        "meta_mean_motion_dot": 2.376e-05,
        "meta_mean_motion_ddot": 0,
        "tle_line1": "1 34642U 93036XP  25347.23172087  .00002376  00000+0  13817-2 0  9990",
        "tle_line2": "2 34642  74.0051 338.9490 0207136 158.7098 220.2456 13.98976497853001"
      },
      "geometry": {
        "type": "Point",
        "coordinates": [
          -21.145100399895465,
          3.9653922147703367
        ]
      }
    },
    {
      "type": "Feature",
      "properties": {
        "norad_id": 34671,
        "name": "COSMOS 2251 DEB",
        "group": "cosmos-2251-debris",
        "lat": -38.48957832710153,
        "lon": 118.8071027214052,
        "alt_km": 679.3057095101185,
        "timestamp": "2025-12-13T22:39:30.106187+00:00",
        "meta_object_name": "COSMOS 2251 DEB",
        "meta_object_id": "1993-036XR",
        "meta_epoch": "2025-12-12T15:48:42.194880",
        "meta_mean_motion": 14.66936189,
        "meta_eccentricity": 0.00114275,
        "meta_inclination": 74.0268,
        "meta_ra_of_asc_node": 134.452,
        "meta_arg_of_pericenter": 214.7351,
        "meta_mean_anomaly": 160.1068,
        "meta_ephemeris_type": 0,
        "meta_classification_type": "U",
        "meta_norad_cat_id": 34671,
        "meta_element_set_no": 999,
        "meta_rev_at_epoch": 88296,
        "meta_bstar": 0.0024200207,
        "meta_mean_motion_dot": 0.00013552,
        "meta_mean_motion_ddot": 0,
        "tle_line1": "1 34671U 93036XR  25346.65882170  .00013552  00000+0  24200-2 0  9994",
        "tle_line2": "2 34671  74.0268 134.4520 0011427 214.7351 160.1068 14.66936189882965"
      },
      "geometry": {
        "type": "Point",
        "coordinates": [
          118.8071027214052,
          -38.48957832710153
        ]
      }
    },
    {
      "type": "Feature",
      "properties": {
        "norad_id": 34672,
        "name": "COSMOS 2251 DEB",
        "group": "cosmos-2251-debris",
        "lat": 6.294852596436861,
        "lon": -54.81251765947513,
        "alt_km": 755.4093957076366,
        "timestamp": "2025-12-13T22:39:30.106198+00:00",
        "meta_object_name": "COSMOS 2251 DEB",
        "meta_object_id": "1993-036XS",
        "meta_epoch": "2025-12-11T16:16:44.249952",
        "meta_mean_motion": 14.36406242,
        "meta_eccentricity": 0.00236356,
        "meta_inclination": 74.0334,
        "meta_ra_of_asc_node": 307.539,
        "meta_arg_of_pericenter": 19.6523,
        "meta_mean_anomaly": 155.1005,
        "meta_ephemeris_type": 0,
        "meta_classification_type": "U",
        "meta_norad_cat_id": 34672,
        "meta_element_set_no": 999,
        "meta_rev_at_epoch": 65162,
        "meta_bstar": 0.00043649208,
        "meta_mean_motion_dot": 1.257e-05,
        "meta_mean_motion_ddot": 0,
        "tle_line1": "1 34672U 93036XS  25345.67828993  .00001257  00000+0  43649-3 0  9997",
        "tle_line2": "2 34672  74.0334 307.5390 0023635  19.6523 155.1005 14.36406242651626"
      },
      "geometry": {
        "type": "Point",
        "coordinates": [
          -54.81251765947513,
          6.294852596436861
        ]
      }
    },
    {
      "type": "Feature",
      "properties": {
        "norad_id": 34678,
        "name": "COSMOS 2251 DEB",
        "group": "cosmos-2251-debris",
        "lat": 16.77912845479454,
        "lon": 178.55321184804455,
        "alt_km": 797.6867743535922,
        "timestamp": "2025-12-13T22:39:30.106208+00:00",
        "meta_object_name": "COSMOS 2251 DEB",
        "meta_object_id": "1993-036XY",
        "meta_epoch": "2025-12-13T05:41:47.325984",
        "meta_mean_motion": 14.30065182,
        "meta_eccentricity": 0.00244246,
        "meta_inclination": 74.0378,
        "meta_ra_of_asc_node": 4.7883,
        "meta_arg_of_pericenter": 53.7593,
        "meta_mean_anomaly": 71.3626,
        "meta_ephemeris_type": 0,
        "meta_classification_type": "U",
        "meta_norad_cat_id": 34678,
        "meta_element_set_no": 999,
        "meta_rev_at_epoch": 87386,
        "meta_bstar": 4.7367439e-05,
        "meta_mean_motion_dot": 9.7e-07,
        "meta_mean_motion_ddot": 0,
        "tle_line1": "1 34678U 93036XY  25347.23735331  .00000097  00000+0  47367-4 0  9993",
        "tle_line2": "2 34678  74.0378   4.7883 0024424  53.7593  71.3626 14.30065182873864"
      },
      "geometry": {
        "type": "Point",
        "coordinates": [
          178.55321184804455,
          16.77912845479454
        ]
      }
    }
  ]
}